EUTELSAT 8 WEST B       
1 40875U 15039B   25319.80725726 -.00000057  00000+0  00000+0 0  9990
2 40875   0.0707  12.2644 0004110 226.5557  98.9519  1.00272196 37512
EUTELSAT 9B             
1 41310U 16005A   25319.81063727  .00000070  00000+0  00000+0 0  9990
2 41310   0.0627  77.1444 0004383 179.8600  98.9702  1.00270863 35978
EUTELSAT 65 WEST A      
1 41382U 16014A   25319.79590387 -.00000268  00000+0  00000+0 0  9993
2 41382   0.1082  61.1116 0002565 186.9228  28.4319  1.00270132 35394
EUTELSAT 117 WEST B     
1 41589U 16038B   25319.64284963 -.00000004  00000+0  00000+0 0  9990
2 41589   0.0076 131.8557 0000181 310.7435  86.8317  1.00273744 34520
EUTELSAT 172B           
1 42741U 17029B   25319.17475405  .00000000  00000+0  00000+0 0  9998
2 42741   0.0335 141.2568 0000129 225.7800 282.3949  1.00271274 31582
EUTELSAT 7C             
1 44334U 19034B   25318.20392132  .00000050  00000+0  00000+0 0  9999
2 44334   0.0693 182.0457 0003131  32.8401 279.1159  1.00272133  4682
EUTELSAT 5 WEST B       
1 44624U 19067A   25319.80786391 -.00000034  00000+0  00000+0 0  9991
2 44624   0.0666 357.4299 0003326 239.9663 103.5861  1.00271877 22293
EUTELSAT KONNECT        
1 45027U 20005B   25318.74008810  .00000054  00000+0  00000+0 0  9999
2 45027   0.0645  95.3629 0001413 182.6181  49.7434  1.00273785 22171
